QIANFAN-9               
1 60387U 24140J   26025.60445438  .00000197  00000+0  28535-3 0  9996
2 60387  88.9777 294.8063 0018081  71.3832 288.9281 13.50988932 73259
QIANFAN-10              
1 60388U 24140K   26025.60858122  .00000192  00000+0  27917-3 0  9993
2 60388  88.9787 294.1574 0016377  51.1849 309.0761 13.50994823 73389
QIANFAN-11              
1 60389U 24140L   26025.57170711  .00000184  00000+0  26530-3 0  9992
2 60389  88.9713 294.7157 0016110  71.3042 288.9856 13.50994275 73039
QIANFAN-12              
1 60390U 24140M   26025.59220999  .00000205  00000+0  29879-3 0  9993
2 60390  88.9756 294.7760 0014928  78.4639 281.8187 13.50991899 73165
QIANFAN-13              
1 60391U 24140N   26025.56339154  .00000195  00000+0  28360-3 0  9997
2 60391  88.9769 294.8843 0014741  80.8477 279.4341 13.50992320 73180
QIANFAN-14              
1 60392U 24140P   26025.58801600  .00000213  00000+0  31033-3 0  9992
2 60392  88.9747 294.7700 0018428  80.8928 279.4307 13.50991942 73197
QIANFAN-15              
1 60393U 24140Q   26025.67038863  .00000188  00000+0  27216-3 0  9995
2 60393  88.9771 294.7284 0014229  68.5176 291.7491 13.50990313 73197
QIANFAN-16              
1 60394U 24140R   26025.80613103  .00000211  00000+0  30730-3 0  9999
2 60394  88.9774 294.8358 0016348  83.7868 276.5145 13.50995947 73123
